{
    "links": {
        "self": "http://www.neowsapp.com/rest/v1/neo/3508142?api_key=iIulBulltgU6a56xZRHN4H3l9WmuAYTsLGpBGhQ2"
    },
    "id": "3508142",
    "neo_reference_id": "3508142",
    "name": "(2010 DL)",
    "designation": "2010 DL",
    "nasa_jpl_url": "http://ssd.jpl.nasa.gov/sbdb.cgi?sstr=3508142",
    "absolute_magnitude_h": 27.0,
    "estimated_diameter": {
        "kilometers": {
            "estimated_diameter_min": 0.0105816886,
            "estimated_diameter_max": 0.023661375
        },
        "meters": {
            "estimated_diameter_min": 10.5816885933,
            "estimated_diameter_max": 23.6613750114
        },
        "miles": {
            "estimated_diameter_min": 0.0065751544,
            "estimated_diameter_max": 0.0147024923
        },
        "feet": {
            "estimated_diameter_min": 34.7168272045,
            "estimated_diameter_max": 77.6291855923
        }
    },
    "is_potentially_hazardous_asteroid": false,
    "close_approach_data": [
        {
            "close_approach_date": "2010-01-30",
            "close_approach_date_full": "2010-Jan-30 15:06",
            "epoch_date_close_approach": 1264863960000,
            "relative_velocity": {
                "kilometers_per_second": "6.5362976124",
                "kilometers_per_hour": "23530.671404812",
                "miles_per_hour": "14621.0441292844"
            },
            "miss_distance": {
                "astronomical": "0.0192321412",
                "lunar": "7.4813029268",
                "kilometers": "2877087.359059244",
                "miles": "1787739.1863518072"
            },
            "orbiting_body": "Earth"
        }
    ],
    "orbital_data": {
        "orbit_id": "7",
        "orbit_determination_date": "2017-04-06 08:58:19",
        "first_observation_date": "2010-02-16",
        "last_observation_date": "2010-02-19",
        "data_arc_in_days": 3,
        "observations_used": 14,
        "orbit_uncertainty": "8",
        "minimum_orbit_intersection": ".0186057",
        "jupiter_tisserand_invariant": "4.814",
        "epoch_osculation": "2455244.5",
        "eccentricity": ".3137927824281528",
        "semi_major_axis": "1.352697503986811",
        "inclination": "2.567788024983534",
        "ascending_node_longitude": "333.6478563838834",
        "orbital_period": "574.6447719043184",
        "perihelion_distance": ".9282307904271725",
        "perihelion_argument": "113.6818654431545",
        "aphelion_distance": "1.77716421754645",
        "perihelion_time": "2455191.634619077949",
        "mean_anomaly": "33.11878583506407",
        "mean_motion": ".6264739846270488",
        "equinox": "J2000",
        "orbit_class": {
            "orbit_class_type": "APO",
            "orbit_class_description": "Near-Earth asteroid orbits which cross the Earth’s orbit similar to that of 1862 Apollo",
            "orbit_class_range": "a (semi-major axis) > 1.0 AU; q (perihelion) < 1.017 AU"
        }
    },
    "is_sentry_object": false
}